STARLINK-35743          
1 66578U 25268X   25347.29462930  .00186438  00000+0  31013-2 0  9990
2 66578  42.9995 117.8528 0000845 255.7967 104.2799 15.50645670  4715
STARLINK-35868          
1 66579U 25268Y   25347.35869785  .00170163  00000+0  28391-2 0  9990
2 66579  42.9994 117.4724 0002169 255.5177 104.5442 15.50624662  4728
STARLINK-35872          
1 66580U 25268Z   25347.35835613  .00169660  00000+0  28305-2 0  9990
2 66580  42.9998 117.4711 0001539 263.3130  96.7555 15.50629346  4727
STARLINK-35744          
1 66581U 25268AA  25347.35801281  .00125160  00000+0  21025-2 0  9994
2 66581  43.0005 117.4668 0001790 274.3514  85.7141 15.50615828  4726
STARLINK-35746          
1 66582U 25268AB  25347.67974319  .00089978  00000+0  15196-2 0  9991
2 66582  42.9999 115.5807 0002637 259.4365 100.6198 15.50621163  4773
STARLINK-35941          
1 66583U 25268AC  25347.09966938  .00155015  00000+0  25890-2 0  9994
2 66583  43.0000 118.9697 0001234 292.7477  67.3252 15.50656869  4680
STARLINK-35939          
1 66584U 25268AD  25347.09932849  .00136765  00000+0  22908-2 0  9997
2 66584  42.9995 118.9657 0001615 276.9481  83.1195 15.50649717  4686
STARLINK-35963          
1 66585U 25268AE  25347.67871097  .00095963  00000+0  16187-2 0  9995
2 66585  43.0001 115.5733 0003338 259.3032 100.7453 15.50626017  4777
TJS-21                  
1 66586U 25269A   25344.73011788  .00001083  00000+0 -44965-1 0  9999
2 66586  63.2690 162.5612 6805766 269.7806  18.6565  2.00567425   392
CZ-3B R/B               
1 66587U 25269B   25346.78292580  .00067576  10944-5  96663-3 0  9994
2 66587  51.3470 169.6347 7518951 228.7177  37.1847  2.03336189   454
STARLINK-36076          
1 66588U 25270A   25347.58336806  .00064951  00000+0  15522-2 0  9990
2 66588  42.9994 187.9141 0001637 233.1025 143.8883 15.40634825  4531
STARLINK-35447          
1 66589U 25270B   25347.58336806 -.00402070  00000+0 -71770-2 0  9998
2 66589  42.9997 187.7948 0001568 266.7776 159.1658 15.50689819  4642
