CCSDS_OMM_VERS = 2.0
CREATION_DATE  = 
ORIGINATOR     = 

OBJECT_NAME    = STARLINK-35743
OBJECT_ID      = 2025-268X
CENTER_NAME    = EARTH
REF_FRAME      = TEME
TIME_SYSTEM    = UTC
MEAN_ELEMENT_THEORY = SGP/SGP4

EPOCH          = 2025-12-13T07:04:15.971520
MEAN_MOTION    = 15.50645670
ECCENTRICITY   = .00008455
INCLINATION    = 42.9995
RA_OF_ASC_NODE = 117.8528
ARG_OF_PERICENTER = 255.7967
MEAN_ANOMALY   = 104.2799

EPHEMERIS_TYPE = 0
CLASSIFICATION_TYPE = U
NORAD_CAT_ID   = 66578
ELEMENT_SET_NO = 999
REV_AT_EPOCH   = 471
BSTAR          = .31012837E-2
MEAN_MOTION_DOT = .186438E-2
MEAN_MOTION_DDOT = 0

CCSDS_OMM_VERS = 2.0
CREATION_DATE  = 
ORIGINATOR     = 

OBJECT_NAME    = STARLINK-35868
OBJECT_ID      = 2025-268Y
CENTER_NAME    = EARTH
REF_FRAME      = TEME
TIME_SYSTEM    = UTC
MEAN_ELEMENT_THEORY = SGP/SGP4

EPOCH          = 2025-12-13T08:36:31.494240
MEAN_MOTION    = 15.50624662
ECCENTRICITY   = .0002169
INCLINATION    = 42.9994
RA_OF_ASC_NODE = 117.4724
ARG_OF_PERICENTER = 255.5177
MEAN_ANOMALY   = 104.5442

EPHEMERIS_TYPE = 0
CLASSIFICATION_TYPE = U
NORAD_CAT_ID   = 66579
ELEMENT_SET_NO = 999
REV_AT_EPOCH   = 472
BSTAR          = .28390677E-2
MEAN_MOTION_DOT = .170163E-2
MEAN_MOTION_DDOT = 0

CCSDS_OMM_VERS = 2.0
CREATION_DATE  = 
ORIGINATOR     = 

OBJECT_NAME    = STARLINK-35872
OBJECT_ID      = 2025-268Z
CENTER_NAME    = EARTH
REF_FRAME      = TEME
TIME_SYSTEM    = UTC
MEAN_ELEMENT_THEORY = SGP/SGP4

EPOCH          = 2025-12-13T08:36:01.969632
MEAN_MOTION    = 15.50629346
ECCENTRICITY   = .00015397
INCLINATION    = 42.9998
RA_OF_ASC_NODE = 117.4711
ARG_OF_PERICENTER = 263.3130
MEAN_ANOMALY   = 96.7555

EPHEMERIS_TYPE = 0
CLASSIFICATION_TYPE = U
NORAD_CAT_ID   = 66580
ELEMENT_SET_NO = 999
REV_AT_EPOCH   = 472
BSTAR          = .28304578E-2
MEAN_MOTION_DOT = .16966E-2
MEAN_MOTION_DDOT = 0

CCSDS_OMM_VERS = 2.0
CREATION_DATE  = 
ORIGINATOR     = 

OBJECT_NAME    = STARLINK-35744
OBJECT_ID      = 2025-268AA
CENTER_NAME    = EARTH
REF_FRAME      = TEME
TIME_SYSTEM    = UTC
MEAN_ELEMENT_THEORY = SGP/SGP4

EPOCH          = 2025-12-13T08:35:32.306784
MEAN_MOTION    = 15.50615828
ECCENTRICITY   = .00017901
INCLINATION    = 43.0005
RA_OF_ASC_NODE = 117.4668
ARG_OF_PERICENTER = 274.3514
MEAN_ANOMALY   = 85.7141

EPHEMERIS_TYPE = 0
CLASSIFICATION_TYPE = U
NORAD_CAT_ID   = 66581
ELEMENT_SET_NO = 999
REV_AT_EPOCH   = 472
BSTAR          = .21025305E-2
MEAN_MOTION_DOT = .12516E-2
MEAN_MOTION_DDOT = 0

CCSDS_OMM_VERS = 2.0
CREATION_DATE  = 
ORIGINATOR     = 

OBJECT_NAME    = STARLINK-35746
OBJECT_ID      = 2025-268AB
CENTER_NAME    = EARTH
REF_FRAME      = TEME
TIME_SYSTEM    = UTC
MEAN_ELEMENT_THEORY = SGP/SGP4

EPOCH          = 2025-12-13T16:18:49.811616
MEAN_MOTION    = 15.50621163
ECCENTRICITY   = .00026374
INCLINATION    = 42.9999
RA_OF_ASC_NODE = 115.5807
ARG_OF_PERICENTER = 259.4365
MEAN_ANOMALY   = 100.6198

EPHEMERIS_TYPE = 0
CLASSIFICATION_TYPE = U
NORAD_CAT_ID   = 66582
ELEMENT_SET_NO = 999
REV_AT_EPOCH   = 477
BSTAR          = .15195994E-2
MEAN_MOTION_DOT = .89978E-3
MEAN_MOTION_DDOT = 0

CCSDS_OMM_VERS = 2.0
CREATION_DATE  = 
ORIGINATOR     = 

OBJECT_NAME    = STARLINK-35941
OBJECT_ID      = 2025-268AC
CENTER_NAME    = EARTH
REF_FRAME      = TEME
TIME_SYSTEM    = UTC
MEAN_ELEMENT_THEORY = SGP/SGP4

EPOCH          = 2025-12-13T02:23:31.434432
MEAN_MOTION    = 15.50656869
ECCENTRICITY   = .0001234
INCLINATION    = 43.0000
RA_OF_ASC_NODE = 118.9697
ARG_OF_PERICENTER = 292.7477
MEAN_ANOMALY   = 67.3252

EPHEMERIS_TYPE = 0
CLASSIFICATION_TYPE = U
NORAD_CAT_ID   = 66583
ELEMENT_SET_NO = 999
REV_AT_EPOCH   = 468
BSTAR          = .25889773E-2
MEAN_MOTION_DOT = .155015E-2
MEAN_MOTION_DDOT = 0

CCSDS_OMM_VERS = 2.0
CREATION_DATE  = 
ORIGINATOR     = 

OBJECT_NAME    = STARLINK-35939
OBJECT_ID      = 2025-268AD
CENTER_NAME    = EARTH
REF_FRAME      = TEME
TIME_SYSTEM    = UTC
MEAN_ELEMENT_THEORY = SGP/SGP4

EPOCH          = 2025-12-13T02:23:01.981536
MEAN_MOTION    = 15.50649717
ECCENTRICITY   = .0001615
INCLINATION    = 42.9995
RA_OF_ASC_NODE = 118.9657
ARG_OF_PERICENTER = 276.9481
MEAN_ANOMALY   = 83.1195

EPHEMERIS_TYPE = 0
CLASSIFICATION_TYPE = U
NORAD_CAT_ID   = 66584
ELEMENT_SET_NO = 999
REV_AT_EPOCH   = 468
BSTAR          = .22907746E-2
MEAN_MOTION_DOT = .136765E-2
MEAN_MOTION_DDOT = 0

CCSDS_OMM_VERS = 2.0
CREATION_DATE  = 
ORIGINATOR     = 

OBJECT_NAME    = STARLINK-35963
OBJECT_ID      = 2025-268AE
CENTER_NAME    = EARTH
REF_FRAME      = TEME
TIME_SYSTEM    = UTC
MEAN_ELEMENT_THEORY = SGP/SGP4

EPOCH          = 2025-12-13T16:17:20.627808
MEAN_MOTION    = 15.50626017
ECCENTRICITY   = .00033383
INCLINATION    = 43.0001
RA_OF_ASC_NODE = 115.5733
ARG_OF_PERICENTER = 259.3032
MEAN_ANOMALY   = 100.7453

EPHEMERIS_TYPE = 0
CLASSIFICATION_TYPE = U
NORAD_CAT_ID   = 66585
ELEMENT_SET_NO = 999
REV_AT_EPOCH   = 477
BSTAR          = .16186739E-2
MEAN_MOTION_DOT = .95963E-3
MEAN_MOTION_DDOT = 0

CCSDS_OMM_VERS = 2.0
CREATION_DATE  = 
ORIGINATOR     = 

OBJECT_NAME    = TJS-21
OBJECT_ID      = 2025-269A
CENTER_NAME    = EARTH
REF_FRAME      = TEME
TIME_SYSTEM    = UTC
MEAN_ELEMENT_THEORY = SGP/SGP4

EPOCH          = 2025-12-10T17:31:22.184832
MEAN_MOTION    = 2.00567425
ECCENTRICITY   = .6805766
INCLINATION    = 63.2690
RA_OF_ASC_NODE = 162.5612
ARG_OF_PERICENTER = 269.7806
MEAN_ANOMALY   = 18.6565

EPHEMERIS_TYPE = 0
CLASSIFICATION_TYPE = U
NORAD_CAT_ID   = 66586
ELEMENT_SET_NO = 999
REV_AT_EPOCH   = 39
BSTAR          = -.44965385E-1
MEAN_MOTION_DOT = .1083E-4
MEAN_MOTION_DDOT = 0

CCSDS_OMM_VERS = 2.0
CREATION_DATE  = 
ORIGINATOR     = 

OBJECT_NAME    = CZ-3B R/B
OBJECT_ID      = 2025-269B
CENTER_NAME    = EARTH
REF_FRAME      = TEME
TIME_SYSTEM    = UTC
MEAN_ELEMENT_THEORY = SGP/SGP4

EPOCH          = 2025-12-12T18:47:24.789120
MEAN_MOTION    = 2.03336189
ECCENTRICITY   = .7518951
INCLINATION    = 51.3470
RA_OF_ASC_NODE = 169.6347
ARG_OF_PERICENTER = 228.7177
MEAN_ANOMALY   = 37.1847

EPHEMERIS_TYPE = 0
CLASSIFICATION_TYPE = U
NORAD_CAT_ID   = 66587
ELEMENT_SET_NO = 999
REV_AT_EPOCH   = 45
BSTAR          = .96662605E-3
MEAN_MOTION_DOT = .67576E-3
MEAN_MOTION_DDOT = .109445E-5

CCSDS_OMM_VERS = 2.0
CREATION_DATE  = 
ORIGINATOR     = 

OBJECT_NAME    = STARLINK-36076
OBJECT_ID      = 2025-270A
CENTER_NAME    = EARTH
REF_FRAME      = TEME
TIME_SYSTEM    = UTC
MEAN_ELEMENT_THEORY = SGP/SGP4

EPOCH          = 2025-12-13T14:00:03.000384
MEAN_MOTION    = 15.40634825
ECCENTRICITY   = .00016372
INCLINATION    = 42.9994
RA_OF_ASC_NODE = 187.9141
ARG_OF_PERICENTER = 233.1025
MEAN_ANOMALY   = 143.8883

EPHEMERIS_TYPE = 0
CLASSIFICATION_TYPE = U
NORAD_CAT_ID   = 66588
ELEMENT_SET_NO = 999
REV_AT_EPOCH   = 453
BSTAR          = .15522377E-2
MEAN_MOTION_DOT = .64951E-3
MEAN_MOTION_DDOT = 0

CCSDS_OMM_VERS = 2.0
CREATION_DATE  = 
ORIGINATOR     = 

OBJECT_NAME    = STARLINK-35447
OBJECT_ID      = 2025-270B
CENTER_NAME    = EARTH
REF_FRAME      = TEME
TIME_SYSTEM    = UTC
MEAN_ELEMENT_THEORY = SGP/SGP4

EPOCH          = 2025-12-13T14:00:03.000384
MEAN_MOTION    = 15.50689819
ECCENTRICITY   = .00015685
INCLINATION    = 42.9997
RA_OF_ASC_NODE = 187.7948
ARG_OF_PERICENTER = 266.7776
MEAN_ANOMALY   = 159.1658

EPHEMERIS_TYPE = 0
CLASSIFICATION_TYPE = U
NORAD_CAT_ID   = 66589
ELEMENT_SET_NO = 999
REV_AT_EPOCH   = 464
BSTAR          = -.71769603E-2
MEAN_MOTION_DOT = -.40207E-2
MEAN_MOTION_DDOT = 0

